[{"OBJECT_NAME":"STARLINK-36039","OBJECT_ID":"2025-270AA","EPOCH":"2026-03-09T00:49:54.128064","MEAN_MOTION":15.27578172,"ECCENTRICITY":0.00011199,"INCLINATION":43.0016,"RA_OF_ASC_NODE":60.0546,"ARG_OF_PERICENTER":247.1761,"MEAN_ANOMALY":112.8972,"EPHEMERIS_TYPE":0,"CLASSIFICATION_TYPE":"U","NORAD_CAT_ID":66612,"ELEMENT_SET_NO":999,"REV_AT_EPOCH":1760,"BSTAR":0.0013345908,"MEAN_MOTION_DOT":0.00036643,"MEAN_MOTION_DDOT":0},{"OBJECT_NAME":"OBJECT BE","OBJECT_ID":"2025-313BE","EPOCH":"2026-03-09T16:43:59.380320","MEAN_MOTION":15.29801687,"ECCENTRICITY":0.00072083,"INCLINATION":97.3989,"RA_OF_ASC_NODE":145.3568,"ARG_OF_PERICENTER":335.3714,"MEAN_ANOMALY":24.7181,"EPHEMERIS_TYPE":0,"CLASSIFICATION_TYPE":"U","NORAD_CAT_ID":67482,"ELEMENT_SET_NO":999,"REV_AT_EPOCH":797,"BSTAR":0.0026504328,"MEAN_MOTION_DOT":0.00077178,"MEAN_MOTION_DDOT":0}]
