STARLINK-36039          
1 66612U 25270AA  26068.03465426  .00036643  00000+0  13346-2 0  9999
2 66612  43.0016  60.0546 0001119 247.1761 112.8972 15.27578172 17607
2025-313BE              
1 67482U 25313BE  26068.69721505  .00077178  00000+0  26504-2 0  9996
2 67482  97.3989 145.3568 0007208 335.3714  24.7181 15.29801687  7972
